CCSDS_OMM_VERS = 2.0
CREATION_DATE  = 
ORIGINATOR     = 

OBJECT_NAME    = STARLINK-36059
OBJECT_ID      = 2025-283AC
CENTER_NAME    = EARTH
REF_FRAME      = TEME
TIME_SYSTEM    = UTC
MEAN_ELEMENT_THEORY = SGP/SGP4

EPOCH          = 2025-12-20T20:00:01.999008
MEAN_MOTION    = 15.74199240
ECCENTRICITY   = .0001069
INCLINATION    = 53.1576
RA_OF_ASC_NODE = 33.1445
ARG_OF_PERICENTER = 85.5653
MEAN_ANOMALY   = 255.9725

EPHEMERIS_TYPE = 0
CLASSIFICATION_TYPE = U
NORAD_CAT_ID   = 66904
ELEMENT_SET_NO = 999
REV_AT_EPOCH   = 373
BSTAR          = -.39102E-3
MEAN_MOTION_DOT = -.57531E-3
MEAN_MOTION_DDOT = 0

CCSDS_OMM_VERS = 2.0
CREATION_DATE  = 
ORIGINATOR     = 

OBJECT_NAME    = STARLINK-36075
OBJECT_ID      = 2025-283AD
CENTER_NAME    = EARTH
REF_FRAME      = TEME
TIME_SYSTEM    = UTC
MEAN_ELEMENT_THEORY = SGP/SGP4

EPOCH          = 2025-12-20T20:00:01.999008
MEAN_MOTION    = 15.74202285
ECCENTRICITY   = .0001134
INCLINATION    = 53.1575
RA_OF_ASC_NODE = 33.1410
ARG_OF_PERICENTER = 80.7873
MEAN_ANOMALY   = 262.6588

EPHEMERIS_TYPE = 0
CLASSIFICATION_TYPE = U
NORAD_CAT_ID   = 66905
ELEMENT_SET_NO = 999
REV_AT_EPOCH   = 373
BSTAR          = -.42349E-3
MEAN_MOTION_DOT = -.6223E-3
MEAN_MOTION_DDOT = 0

CCSDS_OMM_VERS = 2.0
CREATION_DATE  = 
ORIGINATOR     = 

OBJECT_NAME    = 1998-067XS
OBJECT_ID      = 1998-067XS
CENTER_NAME    = EARTH
REF_FRAME      = TEME
TIME_SYSTEM    = UTC
MEAN_ELEMENT_THEORY = SGP/SGP4

EPOCH          = 2025-12-20T11:05:35.991168
MEAN_MOTION    = 15.50962254
ECCENTRICITY   = .00030029
INCLINATION    = 51.6311
RA_OF_ASC_NODE = 104.1082
ARG_OF_PERICENTER = 237.5000
MEAN_ANOMALY   = 122.5699

EPHEMERIS_TYPE = 0
CLASSIFICATION_TYPE = U
NORAD_CAT_ID   = 66906
ELEMENT_SET_NO = 999
REV_AT_EPOCH   = 281
BSTAR          = .37246497E-3
MEAN_MOTION_DOT = .21596E-3
MEAN_MOTION_DDOT = 0

CCSDS_OMM_VERS = 2.0
CREATION_DATE  = 
ORIGINATOR     = 

OBJECT_NAME    = 1998-067XT
OBJECT_ID      = 1998-067XT
CENTER_NAME    = EARTH
REF_FRAME      = TEME
TIME_SYSTEM    = UTC
MEAN_ELEMENT_THEORY = SGP/SGP4

EPOCH          = 2025-12-19T11:42:50.767776
MEAN_MOTION    = 15.52255247
ECCENTRICITY   = .0003998
INCLINATION    = 51.6306
RA_OF_ASC_NODE = 108.8528
ARG_OF_PERICENTER = 265.7173
MEAN_ANOMALY   = 94.3360

EPHEMERIS_TYPE = 0
CLASSIFICATION_TYPE = U
NORAD_CAT_ID   = 66907
ELEMENT_SET_NO = 999
REV_AT_EPOCH   = 266
BSTAR          = .77339E-3
MEAN_MOTION_DOT = .47666E-3
MEAN_MOTION_DDOT = 0

CCSDS_OMM_VERS = 2.0
CREATION_DATE  = 
ORIGINATOR     = 

OBJECT_NAME    = 1998-067XU
OBJECT_ID      = 1998-067XU
CENTER_NAME    = EARTH
REF_FRAME      = TEME
TIME_SYSTEM    = UTC
MEAN_ELEMENT_THEORY = SGP/SGP4

EPOCH          = 2025-12-20T13:57:38.962944
MEAN_MOTION    = 15.52465702
ECCENTRICITY   = .0003923
INCLINATION    = 51.6312
RA_OF_ASC_NODE = 103.4063
ARG_OF_PERICENTER = 272.2862
MEAN_ANOMALY   = 87.7679

EPHEMERIS_TYPE = 0
CLASSIFICATION_TYPE = U
NORAD_CAT_ID   = 66908
ELEMENT_SET_NO = 999
REV_AT_EPOCH   = 283
BSTAR          = .73918E-3
MEAN_MOTION_DOT = .45874E-3
MEAN_MOTION_DDOT = 0

CCSDS_OMM_VERS = 2.0
CREATION_DATE  = 
ORIGINATOR     = 

OBJECT_NAME    = SILVERSAT
OBJECT_ID      = 1998-067XV
CENTER_NAME    = EARTH
REF_FRAME      = TEME
TIME_SYSTEM    = UTC
MEAN_ELEMENT_THEORY = SGP/SGP4

EPOCH          = 2025-12-19T13:13:09.424128
MEAN_MOTION    = 15.52516520
ECCENTRICITY   = .0003839
INCLINATION    = 51.6306
RA_OF_ASC_NODE = 108.5226
ARG_OF_PERICENTER = 268.6960
MEAN_ANOMALY   = 91.3590

EPHEMERIS_TYPE = 0
CLASSIFICATION_TYPE = U
NORAD_CAT_ID   = 66909
ELEMENT_SET_NO = 999
REV_AT_EPOCH   = 267
BSTAR          = .79912E-3
MEAN_MOTION_DOT = .49748E-3
MEAN_MOTION_DDOT = 0

CCSDS_OMM_VERS = 2.0
CREATION_DATE  = 
ORIGINATOR     = 

OBJECT_NAME    = 1998-067XW
OBJECT_ID      = 1998-067XW
CENTER_NAME    = EARTH
REF_FRAME      = TEME
TIME_SYSTEM    = UTC
MEAN_ELEMENT_THEORY = SGP/SGP4

EPOCH          = 2025-12-20T20:04:19.500384
MEAN_MOTION    = 15.52648438
ECCENTRICITY   = .0004199
INCLINATION    = 51.6307
RA_OF_ASC_NODE = 102.1064
ARG_OF_PERICENTER = 252.0731
MEAN_ANOMALY   = 107.9801

EPHEMERIS_TYPE = 0
CLASSIFICATION_TYPE = U
NORAD_CAT_ID   = 66910
ELEMENT_SET_NO = 999
REV_AT_EPOCH   = 287
BSTAR          = .71944E-3
MEAN_MOTION_DOT = .4493E-3
MEAN_MOTION_DDOT = 0

CCSDS_OMM_VERS = 2.0
CREATION_DATE  = 
ORIGINATOR     = 

OBJECT_NAME    = 1998-067XX
OBJECT_ID      = 1998-067XX
CENTER_NAME    = EARTH
REF_FRAME      = TEME
TIME_SYSTEM    = UTC
MEAN_ELEMENT_THEORY = SGP/SGP4

EPOCH          = 2025-12-20T15:22:41.136096
MEAN_MOTION    = 15.53054787
ECCENTRICITY   = .0003876
INCLINATION    = 51.6313
RA_OF_ASC_NODE = 103.0498
ARG_OF_PERICENTER = 258.0568
MEAN_ANOMALY   = 101.9988

EPHEMERIS_TYPE = 0
CLASSIFICATION_TYPE = U
NORAD_CAT_ID   = 66911
ELEMENT_SET_NO = 999
REV_AT_EPOCH   = 283
BSTAR          = .81113E-3
MEAN_MOTION_DOT = .51512E-3
MEAN_MOTION_DDOT = 0

CCSDS_OMM_VERS = 2.0
CREATION_DATE  = 
ORIGINATOR     = 

OBJECT_NAME    = 1998-067XY
OBJECT_ID      = 1998-067XY
CENTER_NAME    = EARTH
REF_FRAME      = TEME
TIME_SYSTEM    = UTC
MEAN_ELEMENT_THEORY = SGP/SGP4

EPOCH          = 2025-12-19T14:52:14.043072
MEAN_MOTION    = 15.51780846
ECCENTRICITY   = .0004012
INCLINATION    = 51.6307
RA_OF_ASC_NODE = 108.2310
ARG_OF_PERICENTER = 260.8810
MEAN_ANOMALY   = 99.1725

EPHEMERIS_TYPE = 0
CLASSIFICATION_TYPE = U
NORAD_CAT_ID   = 66912
ELEMENT_SET_NO = 999
REV_AT_EPOCH   = 267
BSTAR          = .63264E-3
MEAN_MOTION_DOT = .38197E-3
MEAN_MOTION_DDOT = 0

CCSDS_OMM_VERS = 2.0
CREATION_DATE  = 
ORIGINATOR     = 

OBJECT_NAME    = 2025-284A
OBJECT_ID      = 2025-284A
CENTER_NAME    = EARTH
REF_FRAME      = TEME
TIME_SYSTEM    = UTC
MEAN_ELEMENT_THEORY = SGP/SGP4

EPOCH          = 2025-12-18T06:24:29.359008
MEAN_MOTION    = 15.16462178
ECCENTRICITY   = .00203688
INCLINATION    = 80.4052
RA_OF_ASC_NODE = 122.7714
ARG_OF_PERICENTER = 156.4299
MEAN_ANOMALY   = 203.7866

EPHEMERIS_TYPE = 0
CLASSIFICATION_TYPE = U
NORAD_CAT_ID   = 66913
ELEMENT_SET_NO = 999
REV_AT_EPOCH   = 196
BSTAR          = .46237905E-3
MEAN_MOTION_DOT = .9066E-4
MEAN_MOTION_DDOT = 0

CCSDS_OMM_VERS = 2.0
CREATION_DATE  = 
ORIGINATOR     = 

OBJECT_NAME    = 2025-284B
OBJECT_ID      = 2025-284B
CENTER_NAME    = EARTH
REF_FRAME      = TEME
TIME_SYSTEM    = UTC
MEAN_ELEMENT_THEORY = SGP/SGP4

EPOCH          = 2025-12-16T06:51:11.417184
MEAN_MOTION    = 15.18985981
ECCENTRICITY   = .00081793
INCLINATION    = 80.4045
RA_OF_ASC_NODE = 125.2713
ARG_OF_PERICENTER = 234.9626
MEAN_ANOMALY   = 125.0834

EPHEMERIS_TYPE = 0
CLASSIFICATION_TYPE = U
NORAD_CAT_ID   = 66914
ELEMENT_SET_NO = 999
REV_AT_EPOCH   = 166
BSTAR          = .38444995E-3
MEAN_MOTION_DOT = .8068E-4
MEAN_MOTION_DDOT = 0

CCSDS_OMM_VERS = 2.0
CREATION_DATE  = 
ORIGINATOR     = 

OBJECT_NAME    = HULIANWANG DIGUI-105
OBJECT_ID      = 2025-285A
CENTER_NAME    = EARTH
REF_FRAME      = TEME
TIME_SYSTEM    = UTC
MEAN_ELEMENT_THEORY = SGP/SGP4

EPOCH          = 2025-12-20T21:21:12.175200
MEAN_MOTION    = 14.03717974
ECCENTRICITY   = .0008051
INCLINATION    = 50.0049
RA_OF_ASC_NODE = 84.0851
ARG_OF_PERICENTER = 309.9341
MEAN_ANOMALY   = 50.0856

EPHEMERIS_TYPE = 0
CLASSIFICATION_TYPE = U
NORAD_CAT_ID   = 66915
ELEMENT_SET_NO = 999
REV_AT_EPOCH   = 205
BSTAR          = .94511E-4
MEAN_MOTION_DOT = -.2E-7
MEAN_MOTION_DDOT = 0

